[{"OBJECT_NAME":"STARLINK-32414","OBJECT_ID":"2024-193G","EPOCH":"2026-03-09T08:41:31.527744","MEAN_MOTION":15.3019375,"ECCENTRICITY":0.00012363,"INCLINATION":53.1605,"RA_OF_ASC_NODE":92.7322,"ARG_OF_PERICENTER":99.8757,"MEAN_ANOMALY":260.2383,"EPHEMERIS_TYPE":0,"CLASSIFICATION_TYPE":"U","NORAD_CAT_ID":61667,"ELEMENT_SET_NO":999,"REV_AT_EPOCH":7647,"BSTAR":4.063627e-6,"MEAN_MOTION_DOT":-2.39e-6,"MEAN_MOTION_DDOT":0},{"OBJECT_NAME":"LIZZIESAT-2 (LS-2)","OBJECT_ID":"2024-247G","EPOCH":"2026-03-09T11:47:37.199328","MEAN_MOTION":15.28222796,"ECCENTRICITY":0.00040927,"INCLINATION":44.9909,"RA_OF_ASC_NODE":117.0823,"ARG_OF_PERICENTER":327.5136,"MEAN_ANOMALY":32.5495,"EPHEMERIS_TYPE":0,"CLASSIFICATION_TYPE":"U","NORAD_CAT_ID":62383,"ELEMENT_SET_NO":999,"REV_AT_EPOCH":6771,"BSTAR":0.00034516624,"MEAN_MOTION_DOT":9.388e-5,"MEAN_MOTION_DDOT":0}]
