STARLINK-32414          
1 61667U 24193G   26068.36217046 -.00000239  00000+0  40636-5 0  9994
2 61667  53.1605  92.7322 0001236  99.8757 260.2383 15.30193750 76472
LIZZIESAT-2 (LS-2)      
1 62383U 24247G   26068.49140277  .00009388  00000+0  34517-3 0  9997
2 62383  44.9909 117.0823 0004092 327.5136  32.5495 15.28222796 67716
